start=new Date('2022-08-07T00:00:00.000Z').valueOf();
sats=[{"TLE_LINE2":"2 46382  53.0522  96.0946 0001702  69.6138 290.5034 15.06400867107377","COUNTRY_CODE":"US","MEAN_MOTION":"15.06400867","RA_OF_ASC_NODE":"96.0946","OBJECT_TYPE":"PAYLOAD","TIME_SYSTEM":"UTC","OBJECT_NAME":"STARLINK-1769","CLASSIFICATION_TYPE":"U","SEMIMAJOR_AXIS":"6925.346","MEAN_ANOMALY":"290.5034","APOAPSIS":"548.390","INCLINATION":"53.0522","GP_ID":"209723894","DECAY_DATE":null,"TLE_LINE1":"1 46382U 20062BK  22218.87757742 -.00000614  00000-0 -22315-4 0  9995","CENTER_NAME":"EARTH","BSTAR":"-0.00002231500000","MEAN_MOTION_DOT":"-0.00000614","MEAN_MOTION_DDOT":"0.0000000000000","RCS_SIZE":"LARGE","REF_FRAME":"TEME","MEAN_ELEMENT_THEORY":"SGP4","NORAD_CAT_ID":"46382","OBJECT_ID":"2020-062BK","REV_AT_EPOCH":"10737","FILE":"3530813","ECCENTRICITY":"0.00017020","PERIAPSIS":"546.032","LAUNCH_DATE":"2020-09-03","ELEMENT_SET_NO":"999","PERIOD":"95.592","ARG_OF_PERICENTER":"69.6138","EPOCH":"2022-08-06T21:03:42.689088","EPHEMERIS_TYPE":"0","SITE":"AFETR"},{"OBJECT_NAME":"STARLINK-1770","OBJECT_TYPE":"PAYLOAD","RA_OF_ASC_NODE":"141.4563","TIME_SYSTEM":"UTC","TLE_LINE2":"2 46383  53.0544 141.4563 0002007  56.9891 303.1291 15.06402510106727","MEAN_MOTION":"15.06402510","COUNTRY_CODE":"US","GP_ID":"209724145","INCLINATION":"53.0544","APOAPSIS":"548.596","DECAY_DATE":null,"TLE_LINE1":"1 46383U 20062BL  22218.79786615 -.00000588  00000-0 -20586-4 0  9996","SEMIMAJOR_AXIS":"6925.341","CLASSIFICATION_TYPE":"U","MEAN_ANOMALY":"303.1291","REV_AT_EPOCH":"10672","OBJECT_ID":"2020-062BL","ELEMENT_SET_NO":"999","LAUNCH_DATE":"2020-09-03","PERIOD":"95.592","PERIAPSIS":"545.816","ECCENTRICITY":"0.00020070","FILE":"3530813","RCS_SIZE":"LARGE","MEAN_MOTION_DDOT":"0.0000000000000","MEAN_MOTION_DOT":"-0.00000588","CENTER_NAME":"EARTH","BSTAR":"-0.00002058600000","NORAD_CAT_ID":"46383","REF_FRAME":"TEME","MEAN_ELEMENT_THEORY":"SGP4","SITE":"AFETR","EPHEMERIS_TYPE":"0","EPOCH":"2022-08-06T19:08:55.635360","ARG_OF_PERICENTER":"56.9891"},{"OBJECT_NAME":"STARLINK-1771","OBJECT_TYPE":"PAYLOAD","RA_OF_ASC_NODE":"144.1104","TIME_SYSTEM":"UTC","MEAN_MOTION":"15.06391493","COUNTRY_CODE":"US","TLE_LINE2":"2 46384  53.0534 144.1104 0001597  83.3382 276.7789 15.06391493106634","DECAY_DATE":null,"TLE_LINE1":"1 46384U 20062BM  22218.20443380  .00000557  00000-0  56273-4 0  9998","GP_ID":"209693294","APOAPSIS":"548.346","INCLINATION":"53.0534","MEAN_ANOMALY":"276.7789","CLASSIFICATION_TYPE":"U","SEMIMAJOR_AXIS":"6925.375","ECCENTRICITY":"0.00015970","PERIAPSIS":"546.134","PERIOD":"95.593","LAUNCH_DATE":"2020-09-03","ELEMENT_SET_NO":"999","FILE":"3530579","OBJECT_ID":"2020-062BM","REV_AT_EPOCH":"10663","MEAN_ELEMENT_THEORY":"SGP4","REF_FRAME":"TEME","NORAD_CAT_ID":"46384","RCS_SIZE":"LARGE","MEAN_MOTION_DDOT":"0.0000000000000","CENTER_NAME":"EARTH","BSTAR":"0.00005627300000","MEAN_MOTION_DOT":"0.00000557","SITE":"AFETR","EPHEMERIS_TYPE":"0","ARG_OF_PERICENTER":"83.3382","EPOCH":"2022-08-06T04:54:23.080320"},{"EPOCH":"2022-08-06T14:27:38.379456","ARG_OF_PERICENTER":"74.5497","SITE":"AFETR","EPHEMERIS_TYPE":"0","NORAD_CAT_ID":"46532","REF_FRAME":"TEME","MEAN_ELEMENT_THEORY":"SGP4","MEAN_MOTION_DDOT":"0.0000000000000","RCS_SIZE":"LARGE","MEAN_MOTION_DOT":"0.00000338","BSTAR":"0.00004160300000","CENTER_NAME":"EARTH","PERIOD":"95.593","LAUNCH_DATE":"2020-10-06","ELEMENT_SET_NO":"999","PERIAPSIS":"546.311","ECCENTRICITY":"0.00013660","FILE":"3530813","REV_AT_EPOCH":"10189","OBJECT_ID":"2020-070A","MEAN_ANOMALY":"285.5642","SEMIMAJOR_AXIS":"6925.392","CLASSIFICATION_TYPE":"U","DECAY_DATE":null,"TLE_LINE1":"1 46532U 20070A   22218.60252754  .00000338  00000-0  41603-4 0  9997","GP_ID":"209722657","INCLINATION":"53.0563","APOAPSIS":"548.203","MEAN_MOTION":"15.06385897","COUNTRY_CODE":"US","TLE_LINE2":"2 46532  53.0563 302.3189 0001366  74.5497 285.5642 15.06385897101895","OBJECT_NAME":"STARLINK-1644","OBJECT_TYPE":"PAYLOAD","RA_OF_ASC_NODE":"302.3189","TIME_SYSTEM":"UTC"},{"SITE":"AFETR","EPHEMERIS_TYPE":"0","EPOCH":"2022-08-06T14:43:32.880000","ARG_OF_PERICENTER":"67.0863","LAUNCH_DATE":"2020-10-06","ELEMENT_SET_NO":"999","PERIOD":"95.592","PERIAPSIS":"546.302","ECCENTRICITY":"0.00013260","FILE":"3530813","REV_AT_EPOCH":"10189","OBJECT_ID":"2020-070B","NORAD_CAT_ID":"46533","REF_FRAME":"TEME","MEAN_ELEMENT_THEORY":"SGP4","RCS_SIZE":"LARGE","MEAN_MOTION_DDOT":"0.0000000000000","MEAN_MOTION_DOT":"0.00000098","CENTER_NAME":"EARTH","BSTAR":"0.00002548700000","TLE_LINE1":"1 46533U 20070B   22218.61357500  .00000098  00000-0  25487-4 0  9999","DECAY_DATE":null,"GP_ID":"209723908","INCLINATION":"53.0544","APOAPSIS":"548.139","MEAN_ANOMALY":"293.0266","SEMIMAJOR_AXIS":"6925.355","CLASSIFICATION_TYPE":"U","OBJECT_NAME":"STARLINK-1648","RA_OF_ASC_NODE":"302.2586","OBJECT_TYPE":"PAYLOAD","TIME_SYSTEM":"UTC","MEAN_MOTION":"15.06397806","COUNTRY_CODE":"US","TLE_LINE2":"2 46533  53.0544 302.2586 0001326  67.0863 293.0266 15.06397806101894"},{"TIME_SYSTEM":"UTC","OBJECT_TYPE":"PAYLOAD","RA_OF_ASC_NODE":"302.0591","OBJECT_NAME":"STARLINK-1659","TLE_LINE2":"2 46534  53.0552 302.0591 0001316  71.8464 288.2668 15.06395404101903","COUNTRY_CODE":"US","MEAN_MOTION":"15.06395404","INCLINATION":"53.0552","APOAPSIS":"548.139","GP_ID":"209724159","TLE_LINE1":"1 46534U 20070C   22218.66149166 -.00000698  00000-0 -27962-4 0  9990","DECAY_DATE":null,"SEMIMAJOR_AXIS":"6925.363","CLASSIFICATION_TYPE":"U","MEAN_ANOMALY":"288.2668","REV_AT_EPOCH":"10190","OBJECT_ID":"2020-070C","FILE":"3530813","LAUNCH_DATE":"2020-10-06","PERIOD":"95.592","ELEMENT_SET_NO":"999","ECCENTRICITY":"0.00013160","PERIAPSIS":"546.316","MEAN_MOTION_DOT":"-0.00000698","BSTAR":"-0.00002796200000","CENTER_NAME":"EARTH","MEAN_MOTION_DDOT":"0.0000000000000","RCS_SIZE":"LARGE","NORAD_CAT_ID":"46534","REF_FRAME":"TEME","MEAN_ELEMENT_THEORY":"SGP4","EPHEMERIS_TYPE":"0","SITE":"AFETR","EPOCH":"2022-08-06T15:52:32.879424","ARG_OF_PERICENTER":"71.8464"},{"MEAN_ANOMALY":"273.9934","CLASSIFICATION_TYPE":"U","SEMIMAJOR_AXIS":"6925.360","DECAY_DATE":null,"TLE_LINE1":"1 46535U 20070D   22218.65043428  .00000653  00000-0  62756-4 0  9993","GP_ID":"209722908","APOAPSIS":"548.235","INCLINATION":"53.0561","MEAN_MOTION":"15.06396256","COUNTRY_CODE":"US","TLE_LINE2":"2 46535  53.0561 302.1122 0001458  86.1222 273.9934 15.06396256101894","OBJECT_NAME":"STARLINK-1663","OBJECT_TYPE":"PAYLOAD","TIME_SYSTEM":"UTC","RA_OF_ASC_NODE":"302.1122","ARG_OF_PERICENTER":"86.1222","EPOCH":"2022-08-06T15:36:37.521792","SITE":"AFETR","EPHEMERIS_TYPE":"0","REF_FRAME":"TEME","MEAN_ELEMENT_THEORY":"SGP4","NORAD_CAT_ID":"46535","RCS_SIZE":"LARGE","MEAN_MOTION_DDOT":"0.0000000000000","CENTER_NAME":"EARTH","BSTAR":"0.00006275600000","MEAN_MOTION_DOT":"0.00000653","PERIAPSIS":"546.215","ECCENTRICITY":"0.00014580","PERIOD":"95.592","LAUNCH_DATE":"2020-10-06","ELEMENT_SET_NO":"999","FILE":"3530813","OBJECT_ID":"2020-070D","REV_AT_EPOCH":"10189"},{"EPOCH":"2022-08-06T14:38:14.484768","ARG_OF_PERICENTER":"81.3205","SITE":"AFETR","EPHEMERIS_TYPE":"0","RCS_SIZE":"LARGE","MEAN_MOTION_DDOT":"0.0000000000000","MEAN_MOTION_DOT":"0.00001362","BSTAR":"0.00011029000000","CENTER_NAME":"EARTH","NORAD_CAT_ID":"46537","REF_FRAME":"TEME","MEAN_ELEMENT_THEORY":"SGP4","REV_AT_EPOCH":"10189","OBJECT_ID":"2020-070F","ELEMENT_SET_NO":"999","LAUNCH_DATE":"2020-10-06","PERIOD":"95.592","ECCENTRICITY":"0.00012850","PERIAPSIS":"546.330","FILE":"3530813","SEMIMAJOR_AXIS":"6925.355","CLASSIFICATION_TYPE":"U","MEAN_ANOMALY":"278.7930","GP_ID":"209723157","INCLINATION":"53.0565","APOAPSIS":"548.110","DECAY_DATE":null,"TLE_LINE1":"1 46537U 20070F   22218.60988987  .00001362  00000-0  11029-3 0  9992","TLE_LINE2":"2 46537  53.0565 302.2785 0001285  81.3205 278.7930 15.06397885101890","MEAN_MOTION":"15.06397885","COUNTRY_CODE":"US","OBJECT_NAME":"STARLINK-1672","RA_OF_ASC_NODE":"302.2785","OBJECT_TYPE":"PAYLOAD","TIME_SYSTEM":"UTC"},{"SITE":"AFETR","EPHEMERIS_TYPE":"0","EPOCH":"2022-08-06T12:30:51.494112","ARG_OF_PERICENTER":"73.4213","LAUNCH_DATE":"2020-10-06","ELEMENT_SET_NO":"999","PERIOD":"95.593","ECCENTRICITY":"0.00013140","PERIAPSIS":"546.330","FILE":"3530522","REV_AT_EPOCH":"10158","OBJECT_ID":"2020-070G","NORAD_CAT_ID":"46538","MEAN_ELEMENT_THEORY":"SGP4","REF_FRAME":"TEME","RCS_SIZE":"LARGE","MEAN_MOTION_DDOT":"0.0000000000000","MEAN_MOTION_DOT":"-0.00001509","BSTAR":"-0.00008242800000","CENTER_NAME":"EARTH","TLE_LINE1":"1 46538U 20070G   22218.52142933 -.00001509  00000-0 -82428-4 0  9994","DECAY_DATE":null,"GP_ID":"209671267","INCLINATION":"53.0555","APOAPSIS":"548.150","MEAN_ANOMALY":"286.6920","SEMIMAJOR_AXIS":"6925.375","CLASSIFICATION_TYPE":"U","OBJECT_NAME":"STARLINK-1678","RA_OF_ASC_NODE":"302.6796","OBJECT_TYPE":"PAYLOAD","TIME_SYSTEM":"UTC","MEAN_MOTION":"15.06391508","COUNTRY_CODE":"US","TLE_LINE2":"2 46538  53.0555 302.6796 0001314  73.4213 286.6920 15.06391508101589"},{"MEAN_ANOMALY":"281.6114","CLASSIFICATION_TYPE":"U","SEMIMAJOR_AXIS":"6925.374","DECAY_DATE":null,"TLE_LINE1":"1 46541U 20070K   22218.50115202  .00000176  00000-0  30714-4 0  9993","APOAPSIS":"548.180","INCLINATION":"53.0550","GP_ID":"209671566","COUNTRY_CODE":"US","MEAN_MOTION":"15.06391680","TLE_LINE2":"2 46541  53.0550 282.7849 0001359  78.5027 281.6114 15.06391680102158","TIME_SYSTEM":"UTC","OBJECT_TYPE":"PAYLOAD","RA_OF_ASC_NODE":"282.7849","OBJECT_NAME":"STARLINK-1687","ARG_OF_PERICENTER":"78.5027","EPOCH":"2022-08-06T12:01:39.534528","EPHEMERIS_TYPE":"0","SITE":"AFETR","MEAN_ELEMENT_THEORY":"SGP4","REF_FRAME":"TEME","NORAD_CAT_ID":"46541","BSTAR":"0.00003071400000","CENTER_NAME":"EARTH","MEAN_MOTION_DOT":"0.00000176","MEAN_MOTION_DDOT":"0.0000000000000","RCS_SIZE":"LARGE","FILE":"3530529","PERIAPSIS":"546.298","ECCENTRICITY":"0.00013590","LAUNCH_DATE":"2020-10-06","ELEMENT_SET_NO":"999","PERIOD":"95.593","OBJECT_ID":"2020-070K","REV_AT_EPOCH":"10215"}];
